HIMAWARI-8              
1 40267U 14060A   24201.49171851 -.00000263  00000+0  00000+0 0  9995
2 40267   0.0412 203.4515 0001246 278.1183 133.8978  1.00271116 35760
